{
    "links": {
        "self": "http://www.neowsapp.com/rest/v1/neo/3672191?api_key=iIulBulltgU6a56xZRHN4H3l9WmuAYTsLGpBGhQ2"
    },
    "id": "3672191",
    "neo_reference_id": "3672191",
    "name": "(2014 KN4)",
    "designation": "2014 KN4",
    "nasa_jpl_url": "http://ssd.jpl.nasa.gov/sbdb.cgi?sstr=3672191",
    "absolute_magnitude_h": 24.3,
    "estimated_diameter": {
        "kilometers": {
            "estimated_diameter_min": 0.0366906138,
            "estimated_diameter_max": 0.0820427065
        },
        "meters": {
            "estimated_diameter_min": 36.6906137531,
            "estimated_diameter_max": 82.0427064882
        },
        "miles": {
            "estimated_diameter_min": 0.0227984834,
            "estimated_diameter_max": 0.0509789586
        },
        "feet": {
            "estimated_diameter_min": 120.3760332259,
            "estimated_diameter_max": 269.1689931548
        }
    },
    "is_potentially_hazardous_asteroid": false,
    "close_approach_data": [
        {
            "close_approach_date": "1916-05-31",
            "close_approach_date_full": "1916-May-31 12:51",
            "epoch_date_close_approach": -1691060940000,
            "relative_velocity": {
                "kilometers_per_second": "11.6640401651",
                "kilometers_per_hour": "41990.5445942585",
                "miles_per_hour": "26091.2914452491"
            },
            "miss_distance": {
                "astronomical": "0.3299497727",
                "lunar": "128.3504615803",
                "kilometers": "49359783.202904149",
                "miles": "30670747.0608452962"
            },
            "orbiting_body": "Earth"
        },
        {
            "close_approach_date": "1960-05-22",
            "close_approach_date_full": "1960-May-22 12:13",
            "epoch_date_close_approach": -303306420000,
            "relative_velocity": {
                "kilometers_per_second": "15.6461711106",
                "kilometers_per_hour": "56326.2159982687",
                "miles_per_hour": "34998.9201573687"
            },
            "miss_distance": {
                "astronomical": "0.4478997144",
                "lunar": "174.2329889016",
                "kilometers": "67004843.247848328",
                "miles": "41634878.9592218064"
            },
            "orbiting_body": "Earth"
        },
        {
            "close_approach_date": "1997-04-17",
            "close_approach_date_full": "1997-Apr-17 15:19",
            "epoch_date_close_approach": 861290340000,
            "relative_velocity": {
                "kilometers_per_second": "10.1136313954",
                "kilometers_per_hour": "36409.0730233885",
                "miles_per_hour": "22623.1820683383"
            },
            "miss_distance": {
                "astronomical": "0.0895147039",
                "lunar": "34.8212198171",
                "kilometers": "13391209.037120693",
                "miles": "8320911.4498758434"
            },
            "orbiting_body": "Mars"
        },
        {
            "close_approach_date": "2014-06-26",
            "close_approach_date_full": "2014-Jun-26 12:48",
            "epoch_date_close_approach": 1403786880000,
            "relative_velocity": {
                "kilometers_per_second": "5.2622318797",
                "kilometers_per_hour": "18944.0347667543",
                "miles_per_hour": "11771.086491598"
            },
            "miss_distance": {
                "astronomical": "0.1085848682",
                "lunar": "42.2395137298",
                "kilometers": "16244064.996950734",
                "miles": "10093593.9429347692"
            },
            "orbiting_body": "Earth"
        },
        {
            "close_approach_date": "2156-08-05",
            "close_approach_date_full": "2156-Aug-05 22:39",
            "epoch_date_close_approach": 5888414340000,
            "relative_velocity": {
                "kilometers_per_second": "16.6381521155",
                "kilometers_per_hour": "59897.347615687",
                "miles_per_hour": "37217.8824670917"
            },
            "miss_distance": {
                "astronomical": "0.4912522754",
                "lunar": "191.0971351306",
                "kilometers": "73490294.032493398",
                "miles": "45664751.2091409724"
            },
            "orbiting_body": "Earth"
        }
    ],
    "orbital_data": {
        "orbit_id": "12",
        "orbit_determination_date": "2017-04-06 08:40:26",
        "first_observation_date": "2014-05-20",
        "last_observation_date": "2014-08-03",
        "data_arc_in_days": 75,
        "observations_used": 27,
        "orbit_uncertainty": "6",
        "minimum_orbit_intersection": ".10872",
        "jupiter_tisserand_invariant": "3.450",
        "epoch_osculation": "2459000.5",
        "eccentricity": ".5011492194516757",
        "semi_major_axis": "2.249107817080676",
        "inclination": "2.406015939666827",
        "ascending_node_longitude": "239.7626152092025",
        "orbital_period": "1232.008883618238",
        "perihelion_distance": "1.121969190088033",
        "perihelion_argument": "35.77642935604662",
        "aphelion_distance": "3.37624644407332",
        "perihelion_time": "2459299.764944158672",
        "mean_anomaly": "272.5530819382421",
        "mean_motion": ".292205685191758",
        "equinox": "J2000",
        "orbit_class": {
            "orbit_class_type": "AMO",
            "orbit_class_description": "Near-Earth asteroid orbits similar to that of 1221 Amor",
            "orbit_class_range": "1.017 AU < q (perihelion) < 1.3 AU"
        }
    },
    "is_sentry_object": false
}